[{"OBJECT_NAME":"STARLINK-30777","OBJECT_ID":"2023-171D","EPOCH":"2026-03-09T22:00:01.999584","MEAN_MOTION":15.23802724,"ECCENTRICITY":0.00016288,"INCLINATION":43.0003,"RA_OF_ASC_NODE":284.1432,"ARG_OF_PERICENTER":284.3202,"MEAN_ANOMALY":197.2089,"EPHEMERIS_TYPE":0,"CLASSIFICATION_TYPE":"U","NORAD_CAT_ID":58233,"ELEMENT_SET_NO":999,"REV_AT_EPOCH":578,"BSTAR":0.045327207,"MEAN_MOTION_DOT":0.01214255,"MEAN_MOTION_DDOT":0},{"OBJECT_NAME":"HONGHU 2","OBJECT_ID":"2023-193C","EPOCH":"2026-03-09T23:21:07.139520","MEAN_MOTION":15.21543878,"ECCENTRICITY":0.00399876,"INCLINATION":97.2779,"RA_OF_ASC_NODE":62.3901,"ARG_OF_PERICENTER":264.1736,"MEAN_ANOMALY":95.4941,"EPHEMERIS_TYPE":0,"CLASSIFICATION_TYPE":"U","NORAD_CAT_ID":58555,"ELEMENT_SET_NO":999,"REV_AT_EPOCH":8691,"BSTAR":0.0061775359,"MEAN_MOTION_DOT":0.00144707,"MEAN_MOTION_DDOT":0}]
